STARLINK-32646          
1 62307U 24239G   26194.50001156 -.00025834  00000+0 -75552-3 0  9998
2 62307  53.1595 316.4106 0001376  90.8333 174.9320 15.34422804  5804
STARLINK-32706          
1 62308U 24239H   26193.67728846  .00030220  00000+0  90247-3 0  9999
2 62308  53.1590 332.4080 0001131  99.9827 260.1303 15.34381727 88534
STARLINK-32678          
1 62309U 24239J   26194.48846941  .00037426  00000+0  10090-2 0  9999
2 62309  53.1571 315.4385 0004555 314.1269  45.9360 15.37469646 88844
STARLINK-32696          
1 62310U 24239K   26194.39998391  .00013797  00000+0  41876-3 0  9990
2 62310  53.1590 328.3907 0000605  49.3001 310.8054 15.34396749 88656
STARLINK-32700          
1 62311U 24239L   26194.48341247  .00013002  00000+0  39522-3 0  9997
2 62311  53.1604 316.1242 0000752  98.8241 261.2847 15.34405625 88820
STARLINK-32698          
1 62312U 24239M   26193.76335431  .00017863  00000+0  53845-3 0  9999
2 62312  53.1600 331.5244 0000390 127.6657 232.4381 15.34405189 88558
STARLINK-32634          
1 62313U 24239N   26194.48551181  .00020599  00000+0  61879-3 0  9998
2 62313  53.1593 316.1334 0000953 131.5739 228.5345 15.34416943 88836
STARLINK-32651          
1 62314U 24239P   26194.38955431  .00013774  00000+0  41799-3 0  9990
2 62314  53.1587 329.0273 0001579 101.6596 258.4584 15.34403135 88644
STARLINK-32627          
1 62315U 24239Q   26194.38744377  .00011278  00000+0  34437-3 0  9994
2 62315  53.1590 328.9742 0000360  64.7979 295.3061 15.34402194 88643
STARLINK-32596          
1 62316U 24239R   26194.40419417  .00020609  00000+0  61916-3 0  9992
2 62316  53.1590 328.4109 0001649 107.5220 252.5963 15.34412648 88654
STARLINK-32519          
1 62317U 24239S   26194.48532111  .00011139  00000+0  36993-3 0  9993
2 62317  53.1596 316.1311 0001091  94.8258 265.2868 15.31720249 88831
STARLINK-32527          
1 62319U 24239U   26194.48998919  .00011165  00000+0  37081-3 0  9995
2 62319  53.1592 316.1565 0001305  80.8672 279.2477 15.31716617 88838
STARLINK-32481          
1 62320U 24239V   26194.32877229  .00009505  00000+0  33258-3 0  9997
2 62320  53.1610 317.2853 0001036  68.1526 291.9585 15.30204712 88806
STARLINK-32645          
1 62321U 24239W   26194.51076197  .00016045  00000+0  48489-3 0  9993
2 62321  53.1597 316.2882 0001459 108.0023 252.1139 15.34405894 88832
STARLINK-32654          
1 62322U 24239X   26194.40209128  .00013357  00000+0  40564-3 0  9993
2 62322  53.1600 328.3952 0001518  64.5683 295.5476 15.34409318 88654
STARLINK-11444 [DTC]    
1 62409U 24249A   26194.18073312  .00172892  00000+0  13141-2 0  9999
2 62409  42.9946 131.5560 0001840 290.6486  69.4184 15.71001467 89210
STARLINK-11493 [DTC]    
1 62410U 24249B   26194.18606376  .00108641  00000+0  84102-3 0  9990
2 62410  43.0010 131.5921 0001619 286.7459  73.3231 15.70786437 89210
STARLINK-11453 [DTC]    
1 62411U 24249C   26194.21778116  .00110816  00000+0  85377-3 0  9999
2 62411  43.0023 130.9539 0002530 279.1727  80.8855 15.70890347 89222
STARLINK-11441 [DTC]    
1 62413U 24249E   26194.20183642  .00135407  00000+0  10399-2 0  9998
2 62413  43.0009 130.8223 0002159 251.8545 108.2088 15.70878502 89221
STARLINK-11445 [DTC]    
1 62414U 24249F   26193.83096074  .00193141  00000+0  14676-2 0  9990
2 62414  43.0004 133.2104 0002442 290.3888  69.6717 15.70942977 89165
STARLINK-11355 [DTC]    
1 62415U 24249G   26194.20714501  .00111644  00000+0  86132-3 0  9990
2 62415  43.0011 130.8564 0001740 274.2250  85.8419 15.70856283 89221
STARLINK-11446 [DTC]    
1 62416U 24249H   26194.19122017  .00136358  00000+0  10479-2 0  9993
2 62416  42.9987 130.7370 0001287 278.2766  81.7956 15.70861308 89223
STARLINK-11428 [DTC]    
1 62417U 24249J   26194.23368600  .00108725  00000+0  83702-3 0  9996
2 62417  43.0021 131.0886 0002473 300.8743  59.1881 15.70916595 89221
STARLINK-11447 [DTC]    
1 62418U 24249K   26193.24277918  .00136021  00000+0  10470-2 0  9999
2 62418  42.9990 136.5289 0001383 279.9438  80.1274 15.70823924 89074
STARLINK-11434 [DTC]    
1 62420U 24249M   26194.23900420  .00062911  00000+0  48970-3 0  9996
2 62420  43.0005 131.1201 0001396 287.3734  72.6981 15.70858049 89221
STARLINK-11461 [DTC]    
1 62421U 24249N   26194.22837427  .00150717  00000+0  11489-2 0  9998
2 62421  43.0009 131.0334 0004278 236.5277 123.5182 15.70997993 89223
STARLINK-32692          
1 62422U 24249P   26194.44231271  .00009637  00000+0  35916-3 0  9994
2 62422  43.0038 331.8522 0001615 270.1531  89.9135 15.27590059 86958
STARLINK-32680          
1 62423U 24249Q   26194.37518422  .00008684  00000+0  32468-3 0  9993
2 62423  43.0008 324.4421 0002201 284.8949  75.1658 15.27584097 87031
STARLINK-32638          
1 62424U 24249R   26194.39059125  .00010679  00000+0  39701-3 0  9990
2 62424  43.0032 335.8078 0005482 291.7767  68.2501 15.27572591 86903
STARLINK-32283          
1 62425U 24249S   26193.70123836  .00017148  00000+0  63118-3 0  9993
2 62425  43.0033 324.5148 0002395 273.8943  86.1635 15.27581945 86972
