OBJECT_NAME,OBJECT_ID,EPOCH,MEAN_MOTION,ECCENTRICITY,INCLINATION,RA_OF_ASC_NODE,ARG_OF_PERICENTER,MEAN_ANOMALY,EPHEMERIS_TYPE,CLASSIFICATION_TYPE,NORAD_CAT_ID,ELEMENT_SET_NO,REV_AT_EPOCH,BSTAR,MEAN_MOTION_DOT,MEAN_MOTION_DDOT
STARLINK-32646,2024-239G,2026-07-13T12:00:00.998784,15.34422804,.0001376,53.1595,316.4106,90.8333,174.9320,0,U,62307,999,580,-.75552E-3,-.25834E-3,0
STARLINK-32706,2024-239H,2026-07-12T16:15:17.722944,15.34381727,.00011317,53.1590,332.4080,99.9827,260.1303,0,U,62308,999,8853,.90247118E-3,.3022E-3,0
STARLINK-32678,2024-239J,2026-07-13T11:43:23.757024,15.37469646,.0004555,53.1571,315.4385,314.1269,45.9360,0,U,62309,999,8884,.1009E-2,.37426E-3,0
STARLINK-32696,2024-239K,2026-07-13T09:35:58.609824,15.34396749,.0000605,53.1590,328.3907,49.3001,310.8054,0,U,62310,999,8865,.41876E-3,.13797E-3,0
STARLINK-32700,2024-239L,2026-07-13T11:36:06.837408,15.34405625,.0000752,53.1604,316.1242,98.8241,261.2847,0,U,62311,999,8882,.39522E-3,.13002E-3,0
STARLINK-32698,2024-239M,2026-07-12T18:19:13.812384,15.34405189,.00003908,53.1600,331.5244,127.6657,232.4381,0,U,62312,999,8855,.53844792E-3,.17863E-3,0
STARLINK-32634,2024-239N,2026-07-13T11:39:08.220384,15.34416943,.0000953,53.1593,316.1334,131.5739,228.5345,0,U,62313,999,8883,.61879E-3,.20599E-3,0
STARLINK-32651,2024-239P,2026-07-13T09:20:57.492384,15.34403135,.0001579,53.1587,329.0273,101.6596,258.4584,0,U,62314,999,8864,.41799E-3,.13774E-3,0
STARLINK-32627,2024-239Q,2026-07-13T09:17:55.141728,15.34402194,.000036,53.1590,328.9742,64.7979,295.3061,0,U,62315,999,8864,.34437E-3,.11278E-3,0
STARLINK-32596,2024-239R,2026-07-13T09:42:02.376288,15.34412648,.0001649,53.1590,328.4109,107.5220,252.5963,0,U,62316,999,8865,.61916E-3,.20609E-3,0
STARLINK-32519,2024-239S,2026-07-13T11:38:51.743904,15.31720249,.0001091,53.1596,316.1311,94.8258,265.2868,0,U,62317,999,8883,.36993E-3,.11139E-3,0
STARLINK-32527,2024-239U,2026-07-13T11:45:35.066016,15.31716617,.0001305,53.1592,316.1565,80.8672,279.2477,0,U,62319,999,8883,.37081E-3,.11165E-3,0
STARLINK-32481,2024-239V,2026-07-13T07:53:25.925856,15.30204712,.0001036,53.1610,317.2853,68.1526,291.9585,0,U,62320,999,8880,.33258E-3,.9505E-4,0
STARLINK-32645,2024-239W,2026-07-13T12:15:29.834208,15.34405894,.0001459,53.1597,316.2882,108.0023,252.1139,0,U,62321,999,8883,.48489E-3,.16045E-3,0
STARLINK-32654,2024-239X,2026-07-13T09:39:00.686592,15.34409318,.0001518,53.1600,328.3952,64.5683,295.5476,0,U,62322,999,8865,.40564E-3,.13357E-3,0
STARLINK-11444 [DTC],2024-249A,2026-07-13T04:20:15.341568,15.71001467,.000184,42.9946,131.5560,290.6486,69.4184,0,U,62409,999,8921,.13141E-2,.172892E-2,0
STARLINK-11493 [DTC],2024-249B,2026-07-13T04:27:55.908864,15.70786437,.0001619,43.0010,131.5921,286.7459,73.3231,0,U,62410,999,8921,.84102E-3,.108641E-2,0
STARLINK-11453 [DTC],2024-249C,2026-07-13T05:13:36.292224,15.70890347,.000253,43.0023,130.9539,279.1727,80.8855,0,U,62411,999,8922,.85377E-3,.110816E-2,0
STARLINK-11441 [DTC],2024-249E,2026-07-13T04:50:38.666688,15.70878502,.0002159,43.0009,130.8223,251.8545,108.2088,0,U,62413,999,8922,.10399E-2,.135407E-2,0
STARLINK-11445 [DTC],2024-249F,2026-07-12T19:56:35.007936,15.70942977,.00024421,43.0004,133.2104,290.3888,69.6717,0,U,62414,999,8916,.1467554E-2,.193141E-2,0
STARLINK-11355 [DTC],2024-249G,2026-07-13T04:58:17.328864,15.70856283,.000174,43.0011,130.8564,274.2250,85.8419,0,U,62415,999,8922,.86132E-3,.111644E-2,0
STARLINK-11446 [DTC],2024-249H,2026-07-13T04:35:21.422688,15.70861308,.0001287,42.9987,130.7370,278.2766,81.7956,0,U,62416,999,8922,.10479E-2,.136358E-2,0
STARLINK-11428 [DTC],2024-249J,2026-07-13T05:36:30.470400,15.70916595,.0002473,43.0021,131.0886,300.8743,59.1881,0,U,62417,999,8922,.83702E-3,.108725E-2,0
STARLINK-11447 [DTC],2024-249K,2026-07-12T05:49:36.121152,15.70823924,.0001383,42.9990,136.5289,279.9438,80.1274,0,U,62418,999,8907,.1047E-2,.136021E-2,0
STARLINK-11434 [DTC],2024-249M,2026-07-13T05:44:09.962880,15.70858049,.0001396,43.0005,131.1201,287.3734,72.6981,0,U,62420,999,8922,.4897E-3,.62911E-3,0
STARLINK-11461 [DTC],2024-249N,2026-07-13T05:28:51.536928,15.70997993,.0004278,43.0009,131.0334,236.5277,123.5182,0,U,62421,999,8922,.11489E-2,.150717E-2,0
STARLINK-32692,2024-249P,2026-07-13T10:36:55.818144,15.27590059,.0001615,43.0038,331.8522,270.1531,89.9135,0,U,62422,999,8695,.35916E-3,.9637E-4,0
STARLINK-32680,2024-249Q,2026-07-13T09:00:15.916608,15.27584097,.0002201,43.0008,324.4421,284.8949,75.1658,0,U,62423,999,8703,.32468E-3,.8684E-4,0
STARLINK-32638,2024-249R,2026-07-13T09:22:27.084000,15.27572591,.0005482,43.0032,335.8078,291.7767,68.2501,0,U,62424,999,8690,.39701E-3,.10679E-3,0
STARLINK-32283,2024-249S,2026-07-12T16:49:46.994304,15.27581945,.00023956,43.0033,324.5148,273.8943,86.1635,0,U,62425,999,8697,.63117806E-3,.17148E-3,0
